$$SOE
2460147.500000000, A.D. 2023-Jul-22 00:00:00.0000, 1.770504321335277E+08, -4.183145554322917E+08, -1.532584782269305E+07,
2460154.500000000, A.D. 2023-Jul-29 00:00:00.0000, 1.865048282033086E+08, -4.146645268643154E+08, -1.530477092591763E+07,
2460161.500000000, A.D. 2023-Aug-05 00:00:00.0000, 1.958630255854856E+08, -4.108006927267365E+08, -1.527580143230468E+07,
2460168.500000000, A.D. 2023-Aug-12 00:00:00.0000, 2.051204801760994E+08, -4.067256402875931E+08, -1.523897622709942E+07,
2460175.500000000, A.D. 2023-Aug-19 00:00:00.0000, 2.142727190938996E+08, -4.024420390224478E+08, -1.519433559291330E+07,
2460182.500000000, A.D. 2023-Aug-26 00:00:00.0000, 2.233153414274178E+08, -3.979526386208143E+08, -1.514192314935297E+07,
2460189.500000000, A.D. 2023-Sep-02 00:00:00.0000, 2.322440189182652E+08, -3.932602670948542E+08, -1.508178579807243E+07,
2460196.500000000, A.D. 2023-Sep-09 00:00:00.0000, 2.410544966197330E+08, -3.883678290335996E+08, -1.501397368006486E+07,
2460203.500000000, A.D. 2023-Sep-16 00:00:00.0000, 2.497425937012418E+08, -3.832783040617556E+08, -1.493854016537189E+07,
2460210.500000000, A.D. 2023-Sep-23 00:00:00.0000, 2.583042048174234E+08, -3.779947452170448E+08, -1.485554188986078E+07,
2460217.500000000, A.D. 2023-Sep-30 00:00:00.0000, 2.667353017044993E+08, -3.725202760563684E+08, -1.476503871042471E+07,
2460224.500000000, A.D. 2023-Oct-07 00:00:00.0000, 2.750319326515046E+08, -3.668580870338484E+08, -1.466709340687294E+07,
2460231.500000000, A.D. 2023-Oct-14 00:00:00.0000, 2.831902208871543E+08, -3.610114344622277E+08, -1.456177149651009E+07,
2460238.500000000, A.D. 2023-Oct-21 00:00:00.0000, 2.912063651131207E+08, -3.549836404529400E+08, -1.444914132642765E+07,
2460245.500000000, A.D. 2023-Oct-28 00:00:00.0000, 2.990766407623120E+08, -3.487780915742192E+08, -1.432927412793650E+07,
2460252.500000000, A.D. 2023-Nov-04 00:00:00.0000, 3.067974007346172E+08, -3.423982369975277E+08, -1.420224398117445E+07,
2460259.500000000, A.D. 2023-Nov-11 00:00:00.0000, 3.143650757898092E+08, -3.358475867317790E+08, -1.406812775492568E+07,
2460266.500000000, A.D. 2023-Nov-18 00:00:00.0000, 3.217761748191413E+08, -3.291297100091239E+08, -1.392700504678169E+07,
2460273.500000000, A.D. 2023-Nov-25 00:00:00.0000, 3.290272850703619E+08, -3.222482337992141E+08, -1.377895812824625E+07,
2460280.500000000, A.D. 2023-Dec-02 00:00:00.0000, 3.361150723558903E+08, -3.152068414624968E+08, -1.362407189811309E+07,
2460287.500000000, A.D. 2023-Dec-09 00:00:00.0000, 3.430362813232179E+08, -3.080092716003168E+08, -1.346243385598953E+07,
2460294.500000000, A.D. 2023-Dec-16 00:00:00.0000, 3.497877360766413E+08, -3.006593170876053E+08, -1.329413412130962E+07,
2460301.500000000, A.D. 2023-Dec-23 00:00:00.0000, 3.563663415013861E+08, -2.931608235995352E+08, -1.311926547362958E+07,
2460308.500000000, A.D. 2023-Dec-30 00:00:00.0000, 3.627690839527540E+08, -2.855176865831629E+08, -1.293792320555225E+07,
2460315.500000000, A.D. 2024-Jan-06 00:00:00.0000, 3.689930295390162E+08, -2.777338490350325E+08, -1.275020481877777E+07,
2460322.500000000, A.D. 2024-Jan-13 00:00:00.0000, 3.750353231708052E+08, -2.698133018899053E+08, -1.255621000223838E+07,
2460329.500000000, A.D. 2024-Jan-20 00:00:00.0000, 3.808931896018567E+08, -2.617600839339097E+08, -1.235604075273287E+07,
2460336.500000000, A.D. 2024-Jan-27 00:00:00.0000, 3.865639344344563E+08, -2.535782805888695E+08, -1.214980139888933E+07,
2460343.500000000, A.D. 2024-Feb-03 00:00:00.0000, 3.920449446629384E+08, -2.452720225156330E+08, -1.193759856688426E+07,
2460350.500000000, A.D. 2024-Feb-10 00:00:00.0000, 3.973336890340373E+08, -2.368454843265033E+08, -1.171954113733365E+07,
2460357.500000000, A.D. 2024-Feb-17 00:00:00.0000, 4.024277183642194E+08, -2.283028833977284E+08, -1.149574020557423E+07,
2460364.500000000, A.D. 2024-Feb-24 00:00:00.0000, 4.073246658513824E+08, -2.196484787662011E+08, -1.126630904753344E+07,
2460371.500000000, A.D. 2024-Mar-02 00:00:00.0000, 4.120222474115236E+08, -2.108865701419493E+08, -1.103136309662116E+07,
2460378.500000000, A.D. 2024-Mar-09 00:00:00.0000, 4.165182621799118E+08, -2.020214970981520E+08, -1.079101994959834E+07,
2460385.500000000, A.D. 2024-Mar-16 00:00:00.0000, 4.208105935726532E+08, -1.930576382396631E+08, -1.054539942160906E+07,
2460392.500000000, A.D. 2024-Mar-23 00:00:00.0000, 4.248972108068212E+08, -1.839994092393659E+08, -1.029462355016261E+07,
2460399.500000000, A.D. 2024-Mar-30 00:00:00.0000, 4.287761686402545E+08, -1.748512597693307E+08, -1.003881634454368E+07,
2460406.500000000, A.D. 2024-Apr-06 00:00:00.0000, 4.324456055864676E+08, -1.656176726948169E+08, -9.778103579347342E+06,
2460413.500000000, A.D. 2024-Apr-13 00:00:00.0000, 4.359037441530632E+08, -1.563031646924820E+08, -9.512612889594436E+06,
2460420.500000000, A.D. 2024-Apr-20 00:00:00.0000, 4.391488921504323E+08, -1.469122856125493E+08, -9.242473861358419E+06,
2460427.500000000, A.D. 2024-Apr-27 00:00:00.0000, 4.421794435546803E+08, -1.374496171431379E+08, -8.967818024577931E+06,
2460434.500000000, A.D. 2024-May-04 00:00:00.0000, 4.449938790147818E+08, -1.279197714776521E+08, -8.688778813498519E+06,
2460441.500000000, A.D. 2024-May-11 00:00:00.0000, 4.475907662448085E+08, -1.183273900854410E+08, -8.405491524747998E+06,
2460448.500000000, A.D. 2024-May-18 00:00:00.0000, 4.499687603852975E+08, -1.086771425632461E+08, -8.118093278559275E+06,
2460455.500000000, A.D. 2024-May-25 00:00:00.0000, 4.521266043596884E+08, -9.897372557389915E+07, -7.826722985715486E+06,
2460462.500000000, A.D. 2024-Jun-01 00:00:00.0000, 4.540631292859498E+08, -8.922186192890562E+07, -7.531521330128226E+06,
2460469.500000000, A.D. 2024-Jun-08 00:00:00.0000, 4.557772551889138E+08, -7.942629983665219E+07, -7.232630791289594E+06,
2460476.500000000, A.D. 2024-Jun-15 00:00:00.0000, 4.572679924112321E+08, -6.959181176875448E+07, -6.930195698451012E+06,
2460483.500000000, A.D. 2024-Jun-22 00:00:00.0000, 4.585344427177880E+08, -5.972319176605134E+07, -6.624362127875920E+06,
2460490.500000000, A.D. 2024-Jun-29 00:00:00.0000, 4.595757979741318E+08, -4.982525300336833E+07, -6.315277596929554E+06,
2460497.500000000, A.D. 2024-Jul-06 00:00:00.0000, 4.603913390438875E+08, -3.990282808371388E+07, -6.003090999386167E+06,
2460504.500000000, A.D. 2024-Jul-13 00:00:00.0000, 4.609804368524677E+08, -2.996076923579017E+07, -5.687952729854940E+06,
2460511.500000000, A.D. 2024-Jul-20 00:00:00.0000, 4.613425536309472E+08, -2.000394726354543E+07, -5.370014721148252E+06,
2460518.500000000, A.D. 2024-Jul-27 00:00:00.0000, 4.614772436843671E+08, -1.003725020523441E+07, -5.049430412731430E+06,
2460525.500000000, A.D. 2024-Aug-03 00:00:00.0000, 4.613841539574599E+08, -6.558207512003323E+04, -4.726354705929960E+06,
2460532.500000000, A.D. 2024-Aug-10 00:00:00.0000, 4.610630245634128E+08, 9.906138309673965E+06, -4.400943921545208E+06,
2460539.500000000, A.D. 2024-Aug-17 00:00:00.0000, 4.605136893228254E+08, 1.987297844098067E+07, -4.073355762571164E+06,
2460546.500000000, A.D. 2024-Aug-24 00:00:00.0000, 4.597360763406276E+08, 2.982999314994252E+07, -3.743749286549446E+06,
2460553.500000000, A.D. 2024-Aug-31 00:00:00.0000, 4.587302087365330E+08, 3.977222549623378E+07, -3.412284903394494E+06,
2460560.500000000, A.D. 2024-Sep-07 00:00:00.0000, 4.574962058937023E+08, 4.969470764381584E+07, -3.079124422167627E+06,
2460567.500000000, A.D. 2024-Sep-14 00:00:00.0000, 4.560342853085169E+08, 5.959246272085798E+07, -2.744431073488589E+06,
2460574.500000000, A.D. 2024-Sep-21 00:00:00.0000, 4.543447630114948E+08, 6.946050807964464E+07, -2.408369287759617E+06,
2460581.500000000, A.D. 2024-Sep-28 00:00:00.0000, 4.524280520733247E+08, 7.929385673068883E+07, -2.071104448208049E+06,
2460588.500000000, A.D. 2024-Oct-05 00:00:00.0000, 4.502846628644200E+08, 8.908751695277771E+07, -1.732802955429118E+06,
2460595.500000000, A.D. 2024-Oct-12 00:00:00.0000, 4.479152047037604E+08, 9.883649306071682E+07, -1.393632326933362E+06,
2460602.500000000, A.D. 2024-Oct-19 00:00:00.0000, 4.453203871438677E+08, 1.085357870628173E+08, -1.053761193170823E+06,
2460609.500000000, A.D. 2024-Oct-26 00:00:00.0000, 4.425010208583624E+08, 1.181804004096179E+08, -7.133592524743974E+05,
2460616.500000000, A.D. 2024-Nov-02 00:00:00.0000, 4.394580183886750E+08, 1.277653356883066E+08, -3.725972205705568E+05,
2460623.500000000, A.D. 2024-Nov-09 00:00:00.0000, 4.361923948460820E+08, 1.372855982862996E+08, -3.164678171774745E+04,
2460630.500000000, A.D. 2024-Nov-16 00:00:00.0000, 4.327052685947993E+08, 1.467361980267640E+08, 3.093194563223571E+05,
2460637.500000000, A.D. 2024-Nov-23 00:00:00.0000, 4.289978619630523E+08, 1.561121507283268E+08, 6.501279952840954E+05,
2460644.500000000, A.D. 2024-Nov-30 00:00:00.0000, 4.250715021903924E+08, 1.654084796477144E+08, 9.906044449476674E+05,
2460651.500000000, A.D. 2024-Dec-07 00:00:00.0000, 4.209276230295282E+08, 1.746202172259147E+08, 1.330573483191498E+06,
2460658.500000000, A.D. 2024-Dec-14 00:00:00.0000, 4.165677663098381E+08, 1.837424083613646E+08, 1.669858940752238E+06,
2460665.500000000, A.D. 2024-Dec-21 00:00:00.0000, 4.119935811396148E+08, 1.927701139714341E+08, 2.008284122284546E+06,
2460672.500000000, A.D. 2024-Dec-28 00:00:00.0000, 4.072068227179983E+08, 2.016984118770556E+08, 2.345671940581888E+06,
2460679.500000000, A.D. 2025-Jan-04 00:00:00.0000, 4.022093533502899E+08, 2.105223973874488E+08, 2.681844819965273E+06,
2460686.500000000, A.D. 2025-Jan-11 00:00:00.0000, 3.970031438410783E+08, 2.192371852473554E+08, 3.016624671857640E+06,
2460693.500000000, A.D. 2025-Jan-18 00:00:00.0000, 3.915902743465536E+08, 2.278379120313568E+08, 3.349832952096954E+06,
2460700.500000000, A.D. 2025-Jan-25 00:00:00.0000, 3.859729349289869E+08, 2.363197385129558E+08, 3.681290739361882E+06,
2460707.500000000, A.D. 2025-Feb-01 00:00:00.0000, 3.801534260018141E+08, 2.446778519793200E+08, 4.010818815249458E+06,
2460714.500000000, A.D. 2025-Feb-08 00:00:00.0000, 3.741341587215939E+08, 2.529074685118149E+08, 4.338237742547229E+06,
$$EOE